OBJECT_NAME,OBJECT_ID,EPOCH,MEAN_MOTION,ECCENTRICITY,INCLINATION,RA_OF_ASC_NODE,ARG_OF_PERICENTER,MEAN_ANOMALY,EPHEMERIS_TYPE,CLASSIFICATION_TYPE,NORAD_CAT_ID,ELEMENT_SET_NO,REV_AT_EPOCH,BSTAR,MEAN_MOTION_DOT,MEAN_MOTION_DDOT
ONEWEB-0246,2021-045V,2026-07-12T15:45:32.566752,13.15547883,.0002025,87.8994,254.1156,98.9140,261.2219,0,U,48786,999,24762,-.22615E-3,-.72E-6,0
ONEWEB-0210,2021-045W,2026-07-12T16:58:33.540096,13.15548009,.0001735,87.8995,254.1029,132.4109,227.7168,0,U,48787,999,24767,.24571E-3,.105E-5,0
ONEWEB-0214,2021-045X,2026-07-13T04:08:13.553376,13.15546597,.0001717,87.9006,254.0052,111.7592,248.3721,0,U,48788,999,24770,-.49252E-4,-.6E-7,0
ONEWEB-0221,2021-045Y,2026-07-13T04:18:31.054176,13.15548668,.0002192,87.8999,254.0133,103.6882,256.4493,0,U,48789,999,24779,.21836E-3,.95E-6,0
ONEWEB-0213,2021-045Z,2026-07-13T04:02:32.650080,13.15548592,.0002049,87.8995,254.0192,108.1820,251.9533,0,U,48790,999,24785,.30118E-3,.126E-5,0
ONEWEB-0212,2021-045AA,2026-07-13T03:29:26.408256,13.15547516,.000212,87.8989,254.0187,101.1921,258.9447,0,U,48791,999,24784,.26707E-3,.113E-5,0
ONEWEB-0227,2021-045AB,2026-07-12T16:31:10.873056,13.15547682,.0002115,87.8991,254.1094,101.5691,258.5677,0,U,48792,999,24773,.13451E-3,.63E-6,0
ONEWEB-0226,2021-045AC,2026-07-12T16:22:02.974368,13.15547764,.0001956,87.8985,254.1160,107.4745,252.6599,0,U,48793,999,24770,.39817E-3,.163E-5,0
ONEWEB-0224,2021-045AD,2026-07-13T04:16:14.256192,13.15548630,.0002943,87.8989,254.0485,99.4261,260.7202,0,U,48794,999,24769,-.42286E-4,-.3E-7,0
ONEWEB-0233,2021-045AE,2026-07-13T04:22:52.519584,13.15550671,.0002228,87.8985,254.0549,105.2914,254.8462,0,U,48795,999,24771,-.11494E-3,-.3E-6,0
ONEWEB-0190,2021-045AF,2026-07-12T17:07:41.284128,13.15548656,.0002174,87.8992,254.1124,117.2161,242.9191,0,U,48796,999,24772,.13812E-3,.65E-6,0
ONEWEB-0236,2021-045AG,2026-07-12T15:43:16.114368,13.15548119,.0002157,87.8984,254.1319,95.2359,264.9017,0,U,48797,999,24760,-.28103E-3,-.93E-6,0
ONEWEB-0248,2021-045AH,2026-07-12T16:01:30.819648,13.15548836,.0002405,87.8996,254.1153,108.5777,251.5614,0,U,48798,999,24776,-.15477E-3,-.45E-6,0
ONEWEB-0225,2021-045AJ,2026-07-13T03:30:36.216000,13.15548124,.0002194,87.8992,254.0270,113.2136,246.9225,0,U,48799,999,24783,.36727E-3,.151E-5,0
ONEWEB-0215,2021-045AK,2026-07-12T15:50:06.188640,13.15549106,.0002398,87.9000,254.1074,111.9675,248.1710,0,U,48800,999,24764,-.31681E-3,-.106E-5,0
ONEWEB-0216,2021-045AL,2026-07-12T16:03:48.118752,13.15547853,.0001954,87.8984,254.1212,98.0014,262.1338,0,U,48801,999,24765,-.13632E-3,-.38E-6,0
ONEWEB-0239,2021-045AM,2026-07-12T16:10:38.949888,13.15548366,.0002521,87.8979,254.1228,114.2785,245.8609,0,U,48802,999,24769,-.21314E-3,-.67E-6,0
ONEWEB-0249,2021-060A,2026-07-12T23:13:40.651968,13.16592294,.0002168,87.9078,223.6571,96.4459,263.6918,0,U,48967,999,24300,.69455E-4,.39E-6,0
ONEWEB-0250,2021-060B,2026-07-12T23:11:50.821152,13.25835139,.0003089,87.9080,221.3297,88.1386,272.0104,0,U,48968,999,24363,.14332E-3,.76E-6,0
ONEWEB-0252,2021-060D,2026-07-12T13:01:33.470400,13.16595354,.0001822,87.9080,223.7339,96.8380,263.2958,0,U,48970,999,24299,.27121E-3,.117E-5,0
ONEWEB-0253,2021-060E,2026-07-12T12:45:36.066816,13.16594919,.00021711,87.9079,223.7415,95.1739,264.9640,0,U,48971,999,24292,.38478852E-3,.16E-5,0
ONEWEB-0254,2021-060F,2026-07-12T12:59:17.177856,13.16593690,.0002263,87.9083,223.7375,98.0458,262.0930,0,U,48972,999,24292,.25752E-3,.111E-5,0
ONEWEB-0255,2021-060G,2026-07-12T13:54:00.109152,13.16593838,.0002156,87.9081,223.7362,99.0796,261.0578,0,U,48973,999,24300,-.10842E-3,-.29E-6,0
ONEWEB-0256,2021-060H,2026-07-12T12:42:09.385056,13.16592538,.00018555,87.9073,223.7496,92.1773,267.9571,0,U,48974,999,24296,.2654015E-3,.114E-5,0
ONEWEB-0257,2021-060J,2026-07-12T13:28:55.236288,13.16594160,.0002042,87.9084,223.7308,99.2915,260.8447,0,U,48975,999,24292,.13136E-3,.63E-6,0
ONEWEB-0258,2021-060K,2026-07-13T00:27:49.012128,13.16594103,.0002116,87.9080,223.6522,91.6248,268.5126,0,U,48976,999,24299,-.14262E-4,.7E-7,0
ONEWEB-0259,2021-060L,2026-07-13T00:18:41.821056,13.16593920,.0002211,87.9082,223.6520,96.6490,263.4893,0,U,48977,999,24302,-.612E-4,-.11E-6,0
ONEWEB-0260,2021-060M,2026-07-12T13:09:31.218336,13.16595657,.0001666,87.9074,223.7449,93.4775,266.6547,0,U,48978,999,24294,.15758E-3,.73E-6,0
ONEWEB-0261,2021-060N,2026-07-12T12:26:13.870176,13.16593380,.00020253,87.9073,223.7523,104.2075,255.9281,0,U,48979,999,24299,.12811179E-3,.62E-6,0
ONEWEB-0262,2021-060P,2026-07-12T15:36:35.742816,13.16593755,.0002373,87.9084,223.7116,98.6751,261.4649,0,U,48980,999,24297,.10098E-3,.51E-6,0
ONEWEB-0263,2021-060Q,2026-07-12T12:43:19.255872,13.16593735,.00021319,87.9081,223.7478,104.0670,256.0698,0,U,48981,999,24292,.24401046E-3,.106E-5,0
ONEWEB-0264,2021-060R,2026-07-12T13:36:52.526304,13.16592911,.0001947,87.9075,223.7426,97.2070,262.9282,0,U,48982,999,24293,-.41806E-3,-.147E-5,0
ONEWEB-0266,2021-060T,2026-07-12T14:07:40.008864,13.16595342,.0002102,87.9068,223.7313,92.9465,267.1906,0,U,48984,999,24292,.23518E-3,.103E-5,0
ONEWEB-0267,2021-060U,2026-07-12T23:30:49.137696,13.16593357,.0001978,87.9081,223.6488,101.1559,258.9794,0,U,48985,999,24298,-.59541E-4,-.1E-6,0
ONEWEB-0268,2021-060V,2026-07-12T15:27:28.613088,13.16593120,.0002036,87.9085,223.7237,92.8467,267.2897,0,U,48986,999,24320,-.25645E-3,-.85E-6,0
ONEWEB-0269,2021-060W,2026-07-12T15:00:07.058880,13.16593830,.0001957,87.9075,223.7291,86.9410,273.1944,0,U,48987,999,24297,.59323E-4,.36E-6,0
ONEWEB-0270,2021-060X,2026-07-12T15:25:11.948160,13.16593830,.0002358,87.9086,223.7265,103.5357,256.6037,0,U,48988,999,24301,-.18897E-4,.6E-7,0
ONEWEB-0271,2021-060Y,2026-07-13T00:14:08.315808,13.16594188,.0002096,87.9079,223.6435,100.9674,259.1693,0,U,48989,999,24306,.11164E-3,.56E-6,0
ONEWEB-0272,2021-060Z,2026-07-12T13:49:26.259168,13.16595443,.0001809,87.9082,223.7391,97.7675,262.3661,0,U,48990,999,24295,-.54059E-4,-.8E-7,0
ONEWEB-0273,2021-060AA,2026-07-12T12:31:55.170048,13.16593773,.00021169,87.9078,223.7518,98.3617,261.7754,0,U,48991,999,24292,.39909821E-4,.28E-6,0
ONEWEB-0274,2021-060AB,2026-07-12T13:08:23.090208,13.16595214,.0001495,87.9073,223.7461,104.0757,256.0540,0,U,48992,999,24296,.30961E-4,.25E-6,0
ONEWEB-0275,2021-060AC,2026-07-12T12:52:25.759200,13.16595912,.00019962,87.9083,223.7408,96.6469,263.4889,0,U,48993,999,24289,.26209661E-3,.113E-5,0
ONEWEB-0276,2021-060AD,2026-07-13T00:36:56.185056,13.16594350,.0001948,87.9084,223.6424,94.5069,265.6284,0,U,48994,999,24297,.33601E-4,.26E-6,0
ONEWEB-0277,2021-060AE,2026-07-12T15:48:00.330624,13.16594869,.0002118,87.9071,223.7235,99.0807,261.0563,0,U,48995,999,24291,-.12186E-3,-.34E-6,0
ONEWEB-0278,2021-060AF,2026-07-13T00:41:29.883840,13.16594091,.0002329,87.9096,223.6391,89.1317,271.0081,0,U,48996,999,24309,.77E-4,.42E-6,0
ONEWEB-0279,2021-060AG,2026-07-12T13:56:16.921824,13.16594282,.0001938,87.9079,223.7283,100.5777,259.5572,0,U,48997,999,24296,-.11412E-5,.12E-6,0
ONEWEB-0280,2021-060AH,2026-07-12T14:17:56.088384,13.16594832,.0002414,87.9079,223.7297,96.5527,263.5879,0,U,48998,999,24290,.14994E-3,.7E-6,0
ONEWEB-0281,2021-060AJ,2026-07-12T12:36:28.876608,13.16593989,.0002048,87.9080,223.7392,92.4723,267.6643,0,U,48999,999,24296,.2602663E-3,.112E-5,0
ONEWEB-0282,2021-060AK,2026-07-13T00:16:24.835584,13.16595022,.0002162,87.9080,223.6497,93.2652,266.8726,0,U,49000,999,24300,.11899E-3,.58E-6,0
ONEWEB-0283,2021-060AL,2026-07-12T13:03:50.054112,13.16593255,.0002029,87.9078,223.7423,93.6276,266.5087,0,U,49001,999,24295,.36894E-3,.154E-5,0
ONEWEB-0284,2021-060AM,2026-07-12T12:54:43.711488,13.16594144,.00023531,87.9081,223.7376,93.4456,266.6944,0,U,49002,999,24293,.18353785E-3,.83E-6,0
ONEWEB-0285,2021-075A,2026-07-12T21:42:44.652672,13.12432813,.0001858,87.8979,345.5469,96.1630,263.9710,0,U,49075,999,23858,.78288E-3,.294E-5,0
ONEWEB-0286,2021-075B,2026-07-12T21:16:55.015104,13.12441741,.0001728,87.8953,345.5666,85.9555,274.1771,0,U,49076,999,23793,.61854E-3,.235E-5,0
ONEWEB-0287,2021-075C,2026-07-12T19:59:37.737024,13.17646640,.000184,87.9146,0.7626,80.9956,279.1384,0,U,49077,999,23700,-.31367E-3,-.109E-5,0
ONEWEB-0288,2021-075D,2026-07-12T22:32:44.227392,13.12442853,.0001967,87.8965,345.5352,89.9515,270.1839,0,U,49078,999,23856,.81271E-3,.305E-5,0
ONEWEB-0289,2021-075E,2026-07-12T20:55:31.257984,13.17647588,.0002303,87.9149,0.7741,97.3973,262.7420,0,U,49079,999,23758,.75075E-3,.304E-5,0
ONEWEB-0290,2021-075F,2026-07-12T22:05:59.343936,13.17650615,.0002299,87.9147,0.7373,96.4455,263.6938,0,U,49080,999,23700,.48833E-4,.32E-6,0
ONEWEB-0291,2021-075G,2026-07-12T19:54:47.261952,13.17646853,.0002143,87.9143,0.7605,85.2805,274.8571,0,U,49081,999,23698,.18484E-3,.85E-6,0
ONEWEB-0293,2021-075H,2026-07-12T22:20:33.679968,13.17651112,.0001932,87.9133,0.7430,91.9664,268.1688,0,U,49082,999,23702,.21676E-3,.97E-6,0
ONEWEB-0294,2021-075J,2026-07-13T00:32:19.521024,13.12517741,.00024,87.8961,345.5230,99.3471,260.7929,0,U,49083,999,23796,-.33473E-1,-.12027E-3,0
ONEWEB-0295,2021-075K,2026-07-12T22:19:21.385632,13.17650238,.0001994,87.9139,0.7478,84.6981,275.4378,0,U,49084,999,23698,.18495E-3,.85E-6,0
ONEWEB-0296,2021-075L,2026-07-12T22:13:13.164384,13.12443978,.0002067,87.8970,345.5493,88.1940,271.9425,0,U,49085,999,23795,-.57846E-3,-.195E-5,0
ONEWEB-0297,2021-075M,2026-07-12T21:07:21.350208,13.12441305,.0001993,87.8956,345.5668,96.3727,263.7629,0,U,49086,999,23855,.79412E-3,.298E-5,0
ONEWEB-0298,2021-075N,2026-07-12T22:25:39.268128,13.17649655,.0001717,87.9138,0.7450,89.8008,270.3320,0,U,49087,999,23701,.20405E-3,.92E-6,0
ONEWEB-0299,2021-075P,2026-07-12T22:27:51.501600,13.17648518,.000184,87.9151,0.7269,86.3474,273.7867,0,U,49088,999,23699,.60134E-4,.36E-6,0
ONEWEB-0300,2021-075Q,2026-07-12T20:56:22.704000,13.12442520,.0001459,87.8970,345.5497,93.5370,266.5926,0,U,49089,999,23857,.1183E-2,.438E-5,0
ONEWEB-0301,2021-075R,2026-07-12T22:22:58.501920,13.12444135,.0001515,87.8967,345.5360,98.9664,261.1636,0,U,49090,999,23794,.11148E-3,.53E-6,0
